NORAD_CAT_ID,OBJECT_NAME,OBJECT_TYPE,EPOCH,MEAN_MOTION,ECCENTRICITY,INCLINATION,RA_OF_ASC_NODE,ARG_OF_PERICENTER,MEAN_ANOMALY,BSTAR,MEAN_MOTION_DOT,MEAN_MOTION_DDOT,TLE_LINE0,TLE_LINE1,TLE_LINE2,SEMIMAJOR_AXIS,PERIOD,APOGEE,PERIGEE,DECAYED
53263.0,STARLINK-4130,PAYLOAD,2024-04-11 05:22:11,15.08845259,0.0001544,53.2169,85.1621,92.3485,267.7684,6.2879e-05,7.13e-06,0.0,0 STARLINK-4130,1 53263U 22086X   24102.22374683  .00000713  00000-0  62879-4 0  9998,2 53263  53.2169  85.1621 0001544  92.3485 267.7684 15.08845259 95590,6917.864,95.437,540.797,538.661,0.0
53263.0,STARLINK-4130,PAYLOAD,2024-04-11 08:32:57,15.08845811,0.0001552,53.2169,84.5671,93.6215,266.4954,5.9393e-05,6.57e-06,0.0,0 STARLINK-4130,1 53263U 22086X   24102.35622616  .00000657  00000-0  59393-4 0  9998,2 53263  53.2169  84.5671 0001552  93.6215 266.4954 15.08845811 95794,6917.863,95.437,540.801,538.654,0.0
53263.0,STARLINK-4130,PAYLOAD,2024-04-12 05:12:59,15.08836474,0.0001584,53.2178,80.7007,96.5518,263.5654,1.3006e-05,-8.1e-07,0.0,0 STARLINK-4130,1 53263U 22086X   24103.21735439 -.00000081  00000-0  13006-4 0  9995,2 53263  53.2178  80.7007 0001584  96.5518 263.5654 15.08836474 95743,6917.891,95.438,540.852,538.66,0.0
53263.0,STARLINK-4130,PAYLOAD,2024-04-12 08:23:45,15.0883698,0.0001586,53.2178,80.1059,96.683,263.4343,1.6229e-05,-3e-07,0.0,0 STARLINK-4130,1 53263U 22086X   24103.34983412 -.00000030  00000-0  16229-4 0  9999,2 53263  53.2178  80.1059 0001586  96.6830 263.4343 15.08836980 95942,6917.89,95.438,540.852,538.657,0.0
53263.0,STARLINK-4130,PAYLOAD,2024-04-13 05:03:46,15.0884184,0.0001564,53.2178,76.2394,98.4078,261.7091,8.8682e-06,-1.47e-06,0.0,0 STARLINK-4130,1 53263U 22086X   24104.21095166 -.00000147  00000-0  88682-5 0  9998,2 53263  53.2178  76.2394 0001564  98.4078 261.7091 15.08841840 96077,6917.875,95.437,540.822,538.658,0.0
53263.0,STARLINK-4130,PAYLOAD,2024-04-14 03:19:10,15.08835487,0.000159,53.2184,72.0771,107.9454,252.1712,2.486e-05,1.08e-06,0.0,0 STARLINK-4130,1 53263U 22086X   24105.13831674  .00000108  00000-0  24860-4 0  9995,2 53263  53.2184  72.0771 0001590 107.9454 252.1712 15.08835487 96030,6917.894,95.438,540.859,538.659,0.0
53263.0,STARLINK-4130,PAYLOAD,2024-04-15 04:45:20,15.08839749,0.000166,53.2189,67.3224,110.9419,249.1751,5.6258e-05,6.07e-06,0.0,0 STARLINK-4130,1 53263U 22086X   24106.19815663  .00000607  00000-0  56258-4 0  9992,2 53263  53.2189  67.3224 0001660 110.9419 249.1751 15.08839749 96199,6917.881,95.438,540.895,538.598,0.0
53263.0,STARLINK-4130,PAYLOAD,2024-04-15 06:20:43,15.08840651,0.0001686,53.2191,67.0254,112.7943,247.3228,6.3341e-05,7.2e-06,0.0,0 STARLINK-4130,1 53263U 22086X   24106.26439587  .00000720  00000-0  63341-4 0  9994,2 53263  53.2191  67.0254 0001686 112.7943 247.3228 15.08840651 96386,6917.878,95.438,540.91,538.577,0.0
53263.0,STARLINK-4130,PAYLOAD,2024-04-16 03:00:43,15.08849205,0.0001135,53.2193,63.158,115.7572,244.3537,0.00014112,1.959e-05,0.0,0 STARLINK-4130,1 53263U 22086X   24107.12550360  .00001959  00000-0  14112-3 0  9999,2 53263  53.2193  63.1580 0001135 115.7572 244.3537 15.08849205 96336,6917.852,95.437,540.502,538.932,0.0
53263.0,STARLINK-4130,PAYLOAD,2024-04-16 06:11:31,15.08829909,0.0001321,53.2185,62.5655,96.3227,263.7916,-8.0718e-06,-4.16e-06,0.0,0 STARLINK-4130,1 53263U 22086X   24107.25800244 -.00000416  00000-0 -80718-5 0  9998,2 53263  53.2185  62.5655 0001321  96.3227 263.7916 15.08829909 96358,6917.911,95.438,540.69,538.862,0.0
53263.0,STARLINK-4130,PAYLOAD,2024-04-16 14:08:27,15.08830807,0.0001293,53.2186,61.0782,97.6221,262.4918,2.2971e-05,7.8e-07,0.0,0 STARLINK-4130,1 53263U 22086X   24107.58920314  .00000078  00000-0  22971-4 0  9993,2 53263  53.2186  61.0782 0001293  97.6221 262.4918 15.08830807 96582,6917.908,95.438,540.668,538.879,0.0
53263.0,STARLINK-4130,PAYLOAD,2024-04-17 04:26:53,15.08868032,0.0001229,53.2172,58.4011,106.1018,254.011,0.00034098,5.147e-05,0.0,0 STARLINK-4130,1 53263U 22086X   24108.18533838  .00005147  00000-0  34098-3 0  9995,2 53263  53.2172  58.4011 0001229 106.1018 254.0110 15.08868032 96493,6917.795,95.436,540.51,538.81,0.0
53263.0,STARLINK-4130,PAYLOAD,2024-04-18 01:06:55,15.0883115,0.0001315,53.2181,54.5349,100.1667,259.9473,-8.7457e-05,-1.679e-05,0.0,0 STARLINK-4130,1 53263U 22086X   24109.04648052 -.00001679  00000-0 -87457-4 0  9992,2 53263  53.2181  54.5349 0001315 100.1667 259.9473 15.08831150 96626,6917.907,95.438,540.682,538.863,0.0
53263.0,STARLINK-4130,PAYLOAD,2024-04-19 02:33:05,15.08854714,0.0001783,53.2187,49.7776,98.5055,261.614,0.00013287,1.828e-05,0.0,0 STARLINK-4130,1 53263U 22086X   24110.10631386  .00001828  00000-0  13287-3 0  9996,2 53263  53.2187  49.7776 0001783  98.5055 261.6140 15.08854714 96781,6917.835,95.437,540.934,538.467,0.0
53263.0,STARLINK-4130,PAYLOAD,2024-04-19 05:43:51,15.08851162,0.0001929,53.2193,49.1768,95.8603,264.2609,9.4673e-05,1.219e-05,0.0,0 STARLINK-4130,1 53263U 22086X   24110.23879454  .00001219  00000-0  94673-4 0  9993,2 53263  53.2193  49.1768 0001929  95.8603 264.2609 15.08851162 96989,6917.846,95.437,541.046,538.377,0.0
53263.0,STARLINK-4130,PAYLOAD,2024-04-19 20:02:20,15.0884085,0.0001905,53.219,46.4972,99.888,260.2327,0.00020031,2.901e-05,0.0,0 STARLINK-4130,1 53263U 22086X   24110.83496464  .00002901  00000-0  20031-3 0  9990,2 53263  53.2190  46.4972 0001905  99.8880 260.2327 15.08840850 96893,6917.878,95.438,541.061,538.425,0.0
53263.0,STARLINK-4130,PAYLOAD,2024-04-20 02:23:52,15.08865361,0.0001998,53.2189,45.3119,89.7679,270.3542,0.00059343,9.176e-05,0.0,0 STARLINK-4130,1 53263U 22086X   24111.09991592  .00009176  00000-0  59343-3 0  9990,2 53263  53.2189  45.3119 0001998  89.7679 270.3542 15.08865361 96938,6917.803,95.436,541.05,538.286,0.0
53263.0,STARLINK-4130,PAYLOAD,2024-04-20 19:53:07,15.08839172,0.0002021,53.2185,42.044,113.581,246.5395,-0.00014896,-2.658e-05,0.0,0 STARLINK-4130,1 53263U 22086X   24111.82856146 -.00002658  00000-0 -14896-3 0  9990,2 53263  53.2185  42.0440 0002021 113.5810 246.5395 15.08839172 97041,6917.883,95.438,541.146,538.35,0.0
53263.0,STARLINK-4130,PAYLOAD,2024-04-21 02:14:40,15.08834992,0.0001673,53.2188,40.8534,114.3534,245.7633,-0.00014665,-2.621e-05,0.0,0 STARLINK-4130,1 53263U 22086X   24112.09352556 -.00002621  00000-0 -14665-3 0  9990,2 53263  53.2188  40.8534 0001673 114.3534 245.7633 15.08834992 97263,6917.896,95.438,540.918,538.603,0.0
53263.0,STARLINK-4130,PAYLOAD,2024-04-21 19:43:55,15.0883453,0.000149,53.2193,37.585,108.1692,251.9462,-0.0001039,-1.941e-05,0.0,0 STARLINK-4130,1 53263U 22086X   24112.82216944 -.00001941  00000-0 -10390-3 0  9996,2 53263  53.2193  37.5850 0001490 108.1692 251.9462 15.08834530 97195,6917.897,95.438,540.793,538.731,0.0
53263.0,STARLINK-4130,PAYLOAD,2024-04-21 22:54:41,15.08837686,0.0001272,53.2193,36.992,78.841,281.2725,2.5013e-05,1.1e-06,0.0,0 STARLINK-4130,1 53263U 22086X   24112.95464920  .00000110  00000-0  25013-4 0  9993,2 53263  53.2193  36.9920 0001272  78.8410 281.2725 15.08837686 97390,6917.887,95.438,540.632,538.873,0.0
53263.0,STARLINK-4130,PAYLOAD,2024-04-22 03:40:50,15.08845976,0.0001555,53.2203,36.1,87.3964,272.7206,0.00023361,3.432e-05,0.0,0 STARLINK-4130,1 53263U 22086X   24113.15336737  .00003432  00000-0  23361-3 0  9993,2 53263  53.2203  36.1000 0001555  87.3964 272.7206 15.08845976 97240,6917.862,95.437,540.803,538.651,0.0
53263.0,STARLINK-4130,PAYLOAD,2024-04-22 17:59:18,15.08863834,0.0001222,53.2203,33.4234,96.482,263.6311,0.00069323,0.00010769,0.0,0 STARLINK-4130,1 53263U 22086X   24113.74951918  .00010769  00000-0  69323-3 0  9991,2 53263  53.2203  33.4234 0001222  96.4820 263.6311 15.08863834 97331,6917.808,95.436,540.518,538.827,0.0
53263.0,STARLINK-4130,PAYLOAD,2024-04-22 22:45:27,15.08861177,0.0001008,53.2196,32.5278,96.118,263.9927,0.00033533,5.056e-05,0.0,0 STARLINK-4130,1 53263U 22086X   24113.94823800  .00005056  00000-0  33533-3 0  9998,2 53263  53.2196  32.5278 0001008  96.1180 263.9927 15.08861177 97545,6917.816,95.436,540.378,538.983,0.0
53263.0,STARLINK-4130,PAYLOAD,2024-04-23 00:20:51,15.08833606,0.0001309,53.2196,32.2339,94.3957,265.7185,-0.00020634,-3.57e-05,0.0,0 STARLINK-4130,1 53263U 22086X   24114.01448305 -.00003570  00000-0 -20634-3 0  9999,2 53263  53.2196  32.2339 0001309  94.3957 265.7185 15.08833606 97379,6917.9,95.438,540.67,538.859,0.0
53263.0,STARLINK-4130,PAYLOAD,2024-04-23 22:36:16,15.08821251,0.0001291,53.2192,28.0815,92.0847,268.0293,-3.5723e-05,-8.56e-06,0.0,0 STARLINK-4130,1 53263U 22086X   24114.94185412 -.00000856  00000-0 -35723-4 0  9998,2 53263  53.2192  28.0815 0001291  92.0847 268.0293 15.08821251 97694,6917.938,95.439,540.696,538.91,0.0
53263.0,STARLINK-4130,PAYLOAD,2024-04-24 01:47:02,15.08846012,0.000139,53.2197,27.4757,76.6409,283.4738,0.00061422,9.502e-05,0.0,0 STARLINK-4130,1 53263U 22086X   24115.07433423  .00009502  00000-0  61422-3 0  9990,2 53263  53.2197  27.4757 0001390  76.6409 283.4738 15.08846012 97539,6917.862,95.437,540.689,538.765,0.0
53263.0,STARLINK-4130,PAYLOAD,2024-04-24 04:57:48,15.08845479,0.0001761,53.2192,26.8797,56.8849,303.2312,0.00071751,0.00011151,0.0,0 STARLINK-4130,1 53263U 22086X   24115.20681508  .00011151  00000-0  71751-3 0  9993,2 53263  53.2192  26.8797 0001761  56.8849 303.2312 15.08845479 97738,6917.864,95.437,540.947,538.51,0.0
53263.0,STARLINK-4130,PAYLOAD,2024-04-24 22:27:03,15.08841065,0.00016,53.2187,23.6058,102.4468,257.6703,0.00054864,8.455e-05,0.0,0 STARLINK-4130,1 53263U 22086X   24115.93545746  .00008455  00000-0  54864-3 0  9995,2 53263  53.2187  23.6058 0001600 102.4468 257.6703 15.08841065 97849,6917.877,95.437,540.849,538.635,0.0
53263.0,STARLINK-4130,PAYLOAD,2024-04-25 03:13:12,15.08849035,0.0001917,53.2194,22.7153,88.8524,271.2688,0.00075551,0.00011759,0.0,0 STARLINK-4130,1 53263U 22086X   24116.13417705  .00011759  00000-0  75551-3 0  9998,2 53263  53.2194  22.7153 0001917  88.8524 271.2688 15.08849035 97696,6917.853,95.437,541.044,538.392,0.0
